H1 CPF 01  gfz 2022 01 14 13  5142 tandemx   
H2 1003001  6202 36605    2022 01 14 12 59 42 2022 01 19 00 00 42   120 1 1  0 0 0
H9
10 0 59597  15822.000000  0   -6030697.063  -2960133.465  -1534323.011
10 0 59597  15942.000000  0   -6235818.896  -2859304.355   -641284.726
10 0 59597  16062.000000  0   -6329775.497  -2705905.255    263035.572
10 0 59597  16182.000000  0   -6309987.041  -2504559.054   1162723.893
10 0 59597  16302.000000  0   -6175972.159  -2260765.505   2041935.229
10 0 59597  16422.000000  0   -5929370.926  -1980766.641   2885182.250
10 0 59597  16542.000000  0   -5573926.357  -1671398.111   3677615.379
10 0 59597  16662.000000  0   -5115423.041  -1339930.002   4405291.989
10 0 59597  16782.000000  0   -4561583.231   -993900.762   5055424.034
10 0 59597  16902.000000  0   -3921928.397   -640950.216   5616601.122
10 0 59597  17022.000000  0   -3207607.658   -288654.224   6078988.834
10 0 59597  17142.000000  0   -2431194.919     55635.998   6434496.851
10 0 59597  17262.000000  0   -1606460.440    384944.507   6676913.937
10 0 59597  17382.000000  0    -748122.703    692809.061   6802009.992
10 0 59597  17502.000000  0     128415.347    973406.336   6807604.749
10 0 59597  17622.000000  0    1007341.986   1221661.045   6693602.965
10 0 59597  17742.000000  0    1872720.851   1433337.884   6461996.014
10 0 59597  17862.000000  0    2708778.859   1605113.971   6116828.985
10 0 59597  17982.000000  0    3500194.042   1734631.031   5664135.206
10 0 59597  18102.000000  0    4232379.291   1820526.522   5111836.067
10 0 59597  18222.000000  0    4891754.467   1862443.663   4469608.741
10 0 59597  18342.000000  0    5466006.232   1861020.689   3748723.976
10 0 59597  18462.000000  0    5944328.510   1817857.466   2961849.326
10 0 59597  18582.000000  0    6317633.088   1735461.165   2122826.670
10 0 59597  18702.000000  0    6578732.555   1617171.930   1246427.024
10 0 59597  18822.000000  0    6722485.256   1467069.964    348083.862
10 0 59597  18942.000000  0    6745900.534   1289867.092   -556385.923
10 0 59597  19062.000000  0    6648200.683   1090784.797  -1451070.314
10 0 59597  19182.000000  0    6430837.362    875420.907  -2320249.657
10 0 59597  19302.000000  0    6097464.687    649609.689  -3148679.594
10 0 59597  19422.000000  0    5653867.906    419279.779  -3921862.836
10 0 59597  19542.000000  0    5107850.737    190312.519  -4626304.161
10 0 59597  19662.000000  0    4469084.340    -31595.873  -5249742.133
10 0 59597  19782.000000  0    3748924.818   -241064.231  -5781354.662
10 0 59597  19902.000000  0    2960203.039   -433146.278  -6211938.064
10 0 59597  20022.000000  0    2116989.245   -603438.347  -6534055.960
10 0 59597  20142.000000  0    1234340.148   -748172.531  -6742155.395
10 0 59597  20262.000000  0     328032.371   -864294.658  -6832653.870
10 0 59597  20382.000000  0    -585715.848   -949524.459  -6803993.978
10 0 59597  20502.000000  0   -1490527.727  -1002398.383  -6656666.941
10 0 59597  20622.000000  0   -2370155.119  -1022294.161  -6393205.600
10 0 59597  20742.000000  0   -3208763.823  -1009436.716  -6018144.221
10 0 59597  20862.000000  0   -3991212.860   -964885.820  -5537949.612
10 0 59597  20982.000000  0   -4703328.269   -890505.322  -4960921.380
10 0 59597  21102.000000  0   -5332163.131   -788914.074  -4297059.477
10 0 59597  21222.000000  0   -5866239.834   -663420.004  -3557902.078
10 0 59597  21342.000000  0   -6295770.605   -517937.476  -2756333.762
10 0 59597  21462.000000  0   -6612849.125   -356889.477  -1906365.917
10 0 59597  21582.000000  0   -6811609.494   -185097.768  -1022893.903
10 0 59597  21702.000000  0   -6888347.991     -7661.443   -121432.304
10 0 59597  21822.000000  0   -6841599.295    170171.968    782164.346
10 0 59597  21942.000000  0   -6672170.054    343139.268   1671987.193
10 0 59597  22062.000000  0   -6383127.289    506094.872   2532362.404
10 0 59597  22182.000000  0   -5979740.425    654141.527   3348136.514
10 0 59597  22302.000000  0   -5469378.269    782755.111   4104950.841
10 0 59597  22422.000000  0   -4861364.923    887899.959   4789498.222
10 0 59597  22542.000000  0   -4166798.923    966131.879   5389757.768
10 0 59597  22662.000000  0   -3398341.156   1014686.755   5895203.466
10 0 59597  22782.000000  0   -2569975.778   1031552.739   6296985.278
10 0 59597  22902.000000  0   -1696748.621   1015524.782   6588079.406
10 0 59597  23022.000000  0    -794488.120    966240.882   6763404.333
10 0 59597  23142.000000  0     120483.165    884198.559   6819902.735
10 0 59597  23262.000000  0    1031643.063    770751.744   6756590.881
10 0 59597  23382.000000  0    1922566.703    628088.568   6574574.623
10 0 59597  23502.000000  0    2777221.274    459190.028   6277031.579
10 0 59597  23622.000000  0    3580255.017    267770.006   5869160.156
10 0 59597  23742.000000  0    4317275.669     58197.362   5358093.881
10 0 59597  23862.000000  0    4975112.745   -164598.440   4752782.639
10 0 59597  23982.000000  0    5542059.635   -395236.568   4063841.717
10 0 59597  24102.000000  0    6008091.296   -628006.574   3303370.347
10 0 59597  24222.000000  0    6365052.473   -857000.256   2484740.770
10 0 59597  24342.000000  0    6606810.021  -1076250.411   1622360.620
10 0 59597  24462.000000  0    6729365.074  -1279873.357    731415.328
10 0 59597  24582.000000  0    6730925.649  -1462212.327   -172405.237
10 0 59597  24702.000000  0    6611933.753  -1617977.525  -1073193.028
10 0 59597  24822.000000  0    6375046.168  -1742378.242  -1955110.396
10 0 59597  24942.000000  0    6025071.297  -1831244.805  -2802676.741
10 0 59597  25062.000000  0    5568862.886  -1881136.819  -3601045.287
10 0 59597  25182.000000  0    5015175.409  -1889435.156  -4336264.698
10 0 59597  25302.000000  0    4374485.444  -1854415.583  -4995521.287
10 0 59597  25422.000000  0    3658782.622  -1775303.391  -5567357.580
10 0 59597  25542.000000  0    2881335.739  -1652307.514  -6041862.448
10 0 59597  25662.000000  0    2056441.867  -1486633.341  -6410831.718
10 0 59597  25782.000000  0    1199161.690  -1280474.518  -6667900.170
10 0 59597  25902.000000  0     325045.140  -1036984.781  -6808640.447
10 0 59597  26022.000000  0    -550146.394   -760230.226  -6830631.008
10 0 59597  26142.000000  0   -1410717.761   -455122.508  -6733493.004
10 0 59597  26262.000000  0   -2241315.434   -127333.560  -6518896.242
10 0 59597  26382.000000  0   -3027195.177    216806.851  -6190532.478
10 0 59597  26502.000000  0   -3754478.343    570428.979  -5754059.166
10 0 59597  26622.000000  0   -4410396.429    926255.519  -5217012.565
10 0 59597  26742.000000  0   -4983517.718   1276745.767  -4588689.030
10 0 59597  26862.000000  0   -5463953.921   1614251.217  -3879996.303
10 0 59597  26982.000000  0   -5843539.964   1931178.340  -3103272.924
10 0 59597  27102.000000  0   -6115983.966   2220154.176  -2272080.352
10 0 59597  27222.000000  0   -6276983.601   2474192.302  -1400969.522
10 0 59597  27342.000000  0   -6324304.974   2686855.135   -505225.296
10 0 59597  27462.000000  0   -6257821.253   2852407.699    399406.726
10 0 59597  27582.000000  0   -6079507.955   2965958.844   1297005.003
10 0 59597  27702.000000  0   -5793395.370   3023586.713   2171761.130
10 0 59597  27822.000000  0   -5405479.186   3022444.102   3008267.175
10 0 59597  27942.000000  0   -4923592.837   2960841.798   3791794.857
10 0 59597  28062.000000  0   -4357243.037   2838306.656   4508560.932
10 0 59597  28182.000000  0   -3717414.473   2655614.192   5145971.341
10 0 59597  28302.000000  0   -3016349.662   2414795.654   5692841.777
10 0 59597  28422.000000  0   -2267307.238   2119119.278   6139591.713
10 0 59597  28542.000000  0   -1484304.544   1773045.509   6478407.116
10 0 59597  28662.000000  0    -681850.589   1382157.978   6703370.128
10 0 59597  28782.000000  0     125323.597    953071.544   6810555.240
10 0 59597  28902.000000  0     922534.658    493319.463   6798093.365
10 0 59597  29022.000000  0    1695412.831     11221.430   6666202.049
10 0 59597  29142.000000  0    2430159.628   -484266.066   6417182.411
10 0 59597  29262.000000  0    3113793.962   -983715.500   6055382.494
10 0 59597  29382.000000  0    3734383.747  -1477406.331   5587126.573
10 0 59597  29502.000000  0    4281258.117  -1955513.903   5020609.966
10 0 59597  29622.000000  0    4745195.522  -2408304.631   4365761.461
10 0 59597  29742.000000  0    5118586.781  -2826334.871   3634075.421
10 0 59597  29862.000000  0    5395568.551  -3200649.247   2838412.262
10 0 59597  29982.000000  0    5572121.606  -3522972.566   1992771.011
10 0 59597  30102.000000  0    5646132.587  -3785892.036   1112040.506
10 0 59597  30222.000000  0    5617418.369  -3983025.050    211731.153
10 0 59597  30342.000000  0    5487711.137  -4109166.890   -692305.670
10 0 59597  30462.000000  0    5260604.800  -4160415.985  -1584166.141
10 0 59597  30582.000000  0    4941463.531  -4134271.639  -2448182.382
10 0 59597  30702.000000  0    4537295.070  -4029703.304  -3269204.185
10 0 59597  30822.000000  0    4056593.191  -3847189.759  -4032868.503
10 0 59597  30942.000000  0    3509153.049  -3588727.311  -4725850.598
10 0 59597  31062.000000  0    2905865.354  -3257807.709  -5336092.831
10 0 59597  31182.000000  0    2258494.312  -2859366.829  -5853006.369
10 0 59597  31302.000000  0    1579445.937  -2399707.443  -6267644.236
10 0 59597  31422.000000  0     881529.917  -1886396.409  -6572847.061
10 0 59597  31542.000000  0     177718.634  -1328136.671  -6763356.355
10 0 59597  31662.000000  0    -519090.428   -734619.350  -6835894.812
10 0 59597  31782.000000  0   -1196305.276   -116357.964  -6789215.738
10 0 59597  31902.000000  0   -1841861.799    515493.518  -6624121.913
10 0 59597  32022.000000  0   -2444433.739   1149336.703  -6343452.758
10 0 59597  32142.000000  0   -2993627.162   1773336.320  -5952040.924
10 0 59597  32262.000000  0   -3480158.184   2375636.284  -5456638.626
99
